H1 CPF  1  HTS 2022  6 29 12  6801 larets           NONE
H2  0304206 5557    27944 2022 06 29  0  0  0 2022 07 04  0  0  0   180 1 1  0 0 0
H5  0.0560 
H9 
10 0 59759  72360.00000  0     971058.494   -2217989.383    6631372.828
10 0 59759  72540.00000  0     855196.116   -3464406.401    6091051.570
10 0 59759  72720.00000  0     677275.662   -4581207.139    5328028.247
10 0 59759  72900.00000  0     447681.601   -5526172.395    4369978.242
10 0 59759  73080.00000  0     179717.305   -6263545.943    3251783.332
10 0 59759  73260.00000  0    -111059.246   -6765460.854    2014297.042
10 0 59759  73440.00000  0    -407625.063   -7013069.610     702857.996
10 0 59759  73620.00000  0    -692369.016   -6997322.769    -634395.946
10 0 59759  73800.00000  0    -948010.572   -6719337.901   -1948351.206
10 0 59759  73980.00000  0   -1158507.137   -6190333.337   -3190782.236
10 0 59759  74160.00000  0   -1309904.538   -5431140.435   -4316172.168
10 0 59759  74340.00000  0   -1391085.590   -4471317.244   -5283409.880
10 0 59759  74520.00000  0   -1394377.577   -3347920.327   -6057285.709
10 0 59759  74700.00000  0   -1315992.011   -2104007.446   -6609739.072
10 0 59759  74880.00000  0   -1156279.635    -786940.299   -6920823.356
10 0 59759  75060.00000  0    -919794.764     553436.671   -6979368.416
10 0 59759  75240.00000  0    -615166.774    1866673.714   -6783338.192
10 0 59759  75420.00000  0    -254784.535    3103590.567   -6339885.866
10 0 59759  75600.00000  0     145695.863    4218099.752   -5665110.775
10 0 59759  75780.00000  0     568008.614    5168924.797   -4783512.475
10 0 59759  75960.00000  0     992075.875    5921153.002   -3727149.587
10 0 59759  76140.00000  0    1396917.297    6447565.225   -2534515.152
10 0 59759  76320.00000  0    1761633.153    6729679.813   -1249156.593
10 0 59759  76500.00000  0    2066415.994    6758457.876      81919.053
10 0 59759  76680.00000  0    2293538.205    6534622.429    1409993.853
10 0 59759  76860.00000  0    2428261.938    6068573.090    2686460.559
10 0 59759  77040.00000  0    2459625.962    5379904.195    3864637.746
10 0 59759  77220.00000  0    2381069.435    4496552.352    4901503.489
10 0 59759  77400.00000  0    2190857.248    3453612.039    5759273.582
10 0 59759  77580.00000  0    1892289.733    2291889.255    6406749.521
10 0 59759  77760.00000  0    1493697.126    1056276.466    6820410.589
10 0 59759  77940.00000  0    1008215.327    -205994.436    6985222.821
10 0 59759  78120.00000  0     453354.835   -1447146.158    6895150.891
10 0 59759  78300.00000  0    -149625.382   -2620648.471    6553374.124
10 0 59759  78480.00000  0    -776522.953   -3682954.217    5972190.385
10 0 59759  78660.00000  0   -1401144.627   -4595116.203    5172607.749
10 0 59759  78840.00000  0   -1996379.449   -5324237.758    4183644.979
10 0 59759  79020.00000  0   -2535364.804   -5844717.148    3041334.976
10 0 59759  79200.00000  0   -2992689.729   -6139213.995    1787437.479
10 0 59759  79380.00000  0   -3345575.181   -6199284.256     467910.448
10 0 59759  79560.00000  0   -3574972.518   -6025652.544    -868804.507
10 0 59759  79740.00000  0   -3666521.420   -5628099.172   -2173613.646
10 0 59759  79920.00000  0   -3611313.897   -5024960.053   -3398636.268
10 0 59759  80100.00000  0   -3406420.704   -4242265.274   -4499012.501
10 0 59759  80280.00000  0   -3055153.580   -3312571.222   -5434567.464
10 0 59759  80460.00000  0   -2567058.936   -2273556.077   -6171266.920
10 0 59759  80640.00000  0   -1957648.980   -1166450.711   -6682417.852
10 0 59759  80820.00000  0   -1247883.805     -34377.438   -6949581.214
10 0 59759  81000.00000  0    -463433.695    1079331.065   -6963177.364
10 0 59759  81180.00000  0     366249.967    2132772.022   -6722790.906
10 0 59759  81360.00000  0    1209028.168    3087027.807   -6237176.493
10 0 59759  81540.00000  0    2031305.873    3907594.998   -5523962.720
10 0 59759  81720.00000  0    2799358.908    4565637.671   -4609050.951
10 0 59759  81900.00000  0    3480711.116    5039025.452   -3525723.225
10 0 59759  82080.00000  0    4045509.678    5313115.634   -2313470.536
10 0 59759  82260.00000  0    4467839.219    5381237.610   -1016570.569
10 0 59759  82440.00000  0    4726906.693    5244852.736     317537.994
10 0 59759  82620.00000  0    4808034.158    4913373.864    1640021.992
10 0 59759  82800.00000  0    4703404.302    4403653.853    2902478.585
10 0 59759  82980.00000  0    4412525.709    3739170.792    4058746.314
10 0 59759  83160.00000  0    3942384.557    2948945.516    5066616.322
10 0 59759  83340.00000  0    3307286.674    2066258.512    5889370.258
10 0 59759  83520.00000  0    2528395.583    1127230.365    6497090.930
10 0 59759  83700.00000  0    1633001.639     169335.419    6867702.393
10 0 59759  83880.00000  0     653553.553    -770085.456    6987726.784
10 0 59759  84060.00000  0    -373516.631   -1655266.629    6852749.209
10 0 59759  84240.00000  0   -1409138.491   -2453369.499    6467573.959
10 0 59759  84420.00000  0   -2413071.861   -3135695.594    5846070.267
10 0 59759  84600.00000  0   -3345454.826   -3678726.301    5010722.194
10 0 59759  84780.00000  0   -4168398.334   -4064962.017    3991874.759
10 0 59759  84960.00000  0   -4847552.791   -4283517.211    2826674.198
10 0 59759  85140.00000  0   -5353575.947   -4330446.905    1557739.883
10 0 59759  85320.00000  0   -5663438.204   -4208785.206     231600.872
10 0 59759  85500.00000  0   -5761490.547   -3928282.746   -1103046.303
10 0 59759  85680.00000  0   -5640233.582   -3504853.461   -2397184.237
10 0 59759  85860.00000  0   -5300736.984   -2959754.626   -3603337.916
10 0 59759  86040.00000  0   -4752691.807   -2318550.867   -4677359.479
10 0 59759  86220.00000  0   -4014101.940   -1609921.302   -5580060.141
10 0 59760      0.00000  0   -3110635.307    -864372.958   -6278625.772
10 0 59760    180.00000  0   -2074673.974    -112923.606   -6747766.976
10 0 59760    360.00000  0    -944111.058     614182.901   -6970575.731
10 0 59760    540.00000  0     239050.509    1288677.290   -6939077.555
10 0 59760    720.00000  0    1430247.270    1885345.772   -6654484.327
10 0 59760    900.00000  0    2584015.599    2382960.284   -6127149.813
10 0 59760   1080.00000  0    3655714.313    2765031.375   -5376215.817
10 0 59760   1260.00000  0    4603247.200    3020357.089   -4428958.793
10 0 59760   1440.00000  0    5388734.117    3143352.873   -3319848.192
10 0 59760   1620.00000  0    5980059.364    3134145.358   -2089327.269
10 0 59760   1800.00000  0    6352227.894    2998425.496    -782353.331
10 0 59760   1980.00000  0    6488458.374    2747059.251     553258.227
10 0 59760   2160.00000  0    6380950.255    2395471.511    1868616.408
10 0 59760   2340.00000  0    6031283.935    1962838.250    3115583.261
10 0 59760   2520.00000  0    5450432.890    1471127.960    4248573.797
10 0 59760   2700.00000  0    4658383.746     944041.118    5226241.493
10 0 59760   2880.00000  0    3683396.046     405906.532    6012977.806
10 0 59760   3060.00000  0    2560940.954    -119412.308    6580179.354
10 0 59760   3240.00000  0    1332374.538    -609547.210    6907239.556
10 0 59760   3420.00000  0      43403.428   -1044555.145    6982257.620
10 0 59760   3600.00000  0   -1257611.631   -1407716.758    6802445.625
10 0 59760   3780.00000  0   -2521452.189   -1686174.706    6374227.002
10 0 59760   3960.00000  0   -3699883.073   -1871389.309    5713033.532
10 0 59760   4140.00000  0   -4747496.023   -1959403.257    4842805.616
10 0 59760   4320.00000  0   -5623492.330   -1950906.253    3795178.707
10 0 59760   4500.00000  0   -6293322.571   -1851087.998    2608373.448
10 0 59760   4680.00000  0   -6730115.334   -1669286.317    1325824.938
10 0 59760   4860.00000  0   -6915828.117   -1418445.640      -5418.051
10 0 59760   5040.00000  0   -6842041.040   -1114404.752   -1336463.197
10 0 59760   5220.00000  0   -6510347.096    -775051.921   -2618429.656
10 0 59760   5400.00000  0   -5932318.264    -419395.918   -3804300.203
10 0 59760   5580.00000  0   -5129052.255     -66601.237   -4850688.499
10 0 59760   5760.00000  0   -4130326.794     264964.212   -5719439.023
10 0 59760   5940.00000  0   -2973415.563     558615.475   -6378997.538
10 0 59760   6120.00000  0   -1701631.407     800128.857   -6805506.712
10 0 59760   6300.00000  0    -362669.877     978381.499   -6983609.477
10 0 59760   6480.00000  0     993183.711    1085830.991   -6906948.364
10 0 59760   6660.00000  0    2314923.011    1118819.423   -6578368.443
10 0 59760   6840.00000  0    3552722.399    1077694.922   -6009816.819
10 0 59760   7020.00000  0    4659803.991     966745.959   -5221932.093
10 0 59760   7200.00000  0    5594211.281     793950.557   -4243340.257
10 0 59760   7380.00000  0    6320432.948     570550.552   -3109661.424
10 0 59760   7560.00000  0    6810804.506     310465.025   -1862247.420
10 0 59760   7740.00000  0    7046625.411      29568.051    -546684.213
10 0 59760   7920.00000  0    7018923.885    -255135.771     788891.743
10 0 59760   8100.00000  0    6728828.017    -526396.191    2095588.678
10 0 59760   8280.00000  0    6187520.259    -767618.166    3325592.545
10 0 59760   8460.00000  0    5415771.647    -963729.254    4433951.735
10 0 59760   8640.00000  0    4443091.751   -1101968.772    5380231.442
10 0 59760   8820.00000  0    3306540.503   -1172559.926    6129976.721
10 0 59760   9000.00000  0    2049266.397   -1169231.888    6655931.911
10 0 59760   9180.00000  0     718840.984   -1089575.624    6938987.255
10 0 59760   9360.00000  0    -634548.512    -935217.986    6968833.860
10 0 59760   9540.00000  0   -1959980.459    -711807.283    6744312.999
10 0 59760   9720.00000  0   -3207692.727    -428811.243    6273463.797
10 0 59760   9900.00000  0   -4330939.177     -99131.680    5573270.918
10 0 59760  10080.00000  0   -5287757.745     261451.806    4669106.089
10 0 59760  10260.00000  0   -6042582.867     634990.974    3593861.107
99
